# From  26, 114
D/1766 G1 (Helfenzrieder),e,8.717,93.542,175.686,2.72401,0.219225,0.8521500,296.433,01/13.0/2024,2000,g  9.0,4.0
# From  89, 256
D/1884 O1 (Barnard),e,9.3061,332.8955,339.8204,3.084303,0.1819569,0.57115310,228.0248,01/13.0/2024,2000,g  9.0,4.0
# From  89, 256
D/1886 K1 (Brooks),e,10.9262,39.1633,208.4304,3.552101,0.1472231,0.46838250,283.1120,01/13.0/2024,2000,g  9.0,4.0
# From CCO 8
D/1894 F1 (Denning),e,1.4231,297.3376,198.4046,3.825419,0.1317303,0.69393233,99.4570,01/13.0/2024,2000,g  9.0,4.0
# From  13, 428
D/1895 Q1 (Swift),e,13.5223,135.7838,199.2600,3.723201,0.1371922,0.62676643,277.4749,01/13.0/2024,2000,g  9.0,4.0
# From  114, 147
D/1918 W1 (Schorr),e,6.8224,75.9275,326.4430,4.155117,0.1163668,0.31791524,331.8335,01/13.0/2024,2000,g  9.0,4.0
# From MPC 4601
D/1952 B1 (Harrington-Wilson),e,11.1714,116.4062,5.0009,3.079257,0.1824043,0.62513479,98.1132,01/13.0/2024,2000,g  9.0,4.0
# From MPC 11152
D/1977 C1 (Skiff-Kosai),e,3.1989,80.2884,25.2224,3.827087,0.1316442,0.26886461,118.3745,01/13.0/2024,2000,g  9.0,4.0
# From NK 779
D/1978 R1 (Haneda-Campos),e,4.9452,66.4917,307.1749,3.455869,0.1534151,0.62933081,41.4783,01/13.0/2024,2000,g  9.0,4.0
# From MPC 23764
D/1993 F2-D (Shoemaker-Levy),e,40.9062,160.7104,223.7503,4.219249,0.1137238,0.33204400,6.9046,01/13.0/2024,2000,g  9.0,4.0
# From MPEC 2022-S20
C/1995 O1 (Hale-Bopp),e,89.4434,282.3504,130.2119,177.3095,0.0004175,0.99498323,0.0000,03/30.7528/1997,2000,g -2.0,4.0
# From NK 1615
P/1996 R2 (Lagerkvist),e,2.5999,40.0585,333.4213,3.773934,0.1344351,0.31455613,241.1273,01/13.0/2024,2000,g 11.5,4.0
# From MPC 75703
P/1998 VS24 (LINEAR),e,5.0282,159.0701,244.7130,4.523035,0.1024611,0.24362170,223.4388,01/13.0/2024,2000,g 13.0,2.0
# From NK 731
P/1999 RO28 (LONEOS),e,7.5670,137.8747,231.3182,3.426044,0.1554228,0.67242671,258.0203,01/13.0/2024,2000,g 20.0,2.0
# From MPC 75704
P/1999 XN120 (Catalina),e,5.0297,285.2617,161.6846,4.179065,0.1153680,0.21078236,278.1512,01/13.0/2024,2000,g 13.5,2.0
# From NK 744
P/2000 R2 (LINEAR),e,11.6825,160.2923,176.5914,3.468353,0.1525876,0.53095538,254.8443,01/13.0/2024,2000,g 18.0,4.0
# From MPC 43019
P/2001 H5 (NEAT),e,8.3685,328.6390,224.6727,6.095550,0.0654915,0.59836526,197.6714,01/13.0/2024,2000,g 12.0,4.0
# From MPEC 2023-Y70
P/2001 Q6 (NEAT),e,56.9090,22.1852,42.9187,7.972793,0.0437813,0.82367790,358.0629,01/13.0/2024,2000,g 13.5,4.0
# From MPEC 2023-UR6
P/2002 EJ57 (LINEAR),e,4.9823,330.2665,167.2551,6.458488,0.0600493,0.59305789,122.1992,01/13.0/2024,2000,g 12.5,4.0
# From MPC 75007
C/2002 VQ94 (LINEAR),e,70.7101,35.1617,99.8600,185.0033,0.0003917,0.96336309,2.5661,01/13.0/2024,2000,g  9.5,2.0
# From MPC 50354
P/2003 F2 (NEAT),e,11.6346,358.9624,192.2911,6.501680,0.0594519,0.54149355,90.5167,01/13.0/2024,2000,g 16.5,2.0
# From MPC 50139
P/2003 QX29 (NEAT),e,11.3976,264.5362,37.6705,8.007044,0.0435006,0.47190266,335.1139,01/13.0/2024,2000,g  8.5,4.0
# From MPC105235
P/2003 T12 (SOHO),e,11.0250,174.5809,219.7784,2.584459,0.2372191,0.77027263,319.0190,01/13.0/2024,2000,g 17.0,4.0
# From MPC 54558
P/2004 DO29 (Spacewatch-LINEAR),e,14.5278,147.3230,40.4697,7.307179,0.0498976,0.44198554,352.9116,01/13.0/2024,2000,g 13.5,2.0
# From MPEC 2022-YN2
P/2004 FY140 (LINEAR),e,2.1619,327.2718,254.1146,4.970189,0.0889497,0.19194301,258.9414,01/13.0/2024,2000,g 12.5,2.0
# From MPC 53304
P/2004 R3 (LINEAR-NEAT),e,12.7907,305.1309,37.5696,4.754583,0.0950682,0.25457579,80.4939,01/13.0/2024,2000,g 14.5,4.0
# From MPC 75705
P/2004 V5 (LINEAR-Hill),e,19.3486,47.7384,87.4262,8.010134,0.0434755,0.44655623,303.2818,01/13.0/2024,2000,g  8.0,4.0
# From MPC 75705
P/2004 V5-B (LINEAR-Hill),e,19.3486,47.7388,87.4292,8.010540,0.0434722,0.44658078,303.2442,01/13.0/2024,2000,g  8.0,4.0
# From MPC 54164
P/2005 E1 (Tubbiolo),e,4.2621,335.5262,193.8702,7.060301,0.0525375,0.37640866,5.6328,01/13.0/2024,2000,g 10.0,4.0
# From MPC 79019
P/2005 J1 (McNaught),e,31.7389,268.7985,338.9157,3.573456,0.1459054,0.56898998,280.3594,01/13.0/2024,2000,g 16.5,4.0
# From MPC 74246
P/2005 L1 (McNaught),e,7.6575,136.7426,152.2606,4.011790,0.1226583,0.22158465,96.8489,01/13.0/2024,2000,g  9.5,4.0
# From MPC 75706
P/2005 S2 (Skiff),e,3.1369,161.3592,229.6620,7.994631,0.0436020,0.19888982,279.9871,01/13.0/2024,2000,g  7.5,4.0
# From MPC 75706
P/2005 SB216 (LONEOS),e,24.1106,1.1275,83.2192,7.152196,0.0515282,0.46545503,322.2450,01/13.0/2024,2000,g 12.0,2.0
# From MPC 73461
P/2005 T3 (Read),e,6.2270,27.6610,6.7904,7.586560,0.0471668,0.17547800,315.3949,01/13.0/2024,2000,g  9.0,4.0
# From MPC 73461
P/2005 T4 (SWAN),e,160.2868,25.9467,41.8773,9.355300,0.0344443,0.93005808,229.4704,01/13.0/2024,2000,g 15.0,4.0
# From MPC 75706
P/2005 T5 (Broughton),e,21.3835,57.0687,304.7219,7.270133,0.0502795,0.55239021,333.9223,01/13.0/2024,2000,g 11.0,4.0
# From MPC 75707
P/2006 HR30 (Siding Spring),e,31.9124,309.8291,117.4141,7.803866,0.0452105,0.84356980,281.7472,01/13.0/2024,2000,g 11.0,4.0
# From MPC 75707
P/2007 C2 (Catalina),e,8.6122,275.2590,180.1591,7.007537,0.0531320,0.47298282,317.5485,01/13.0/2024,2000,g 10.0,4.0
# From MPC 84315
C/2007 D1 (LINEAR),e,41.5045,171.1693,339.6994,1147,0.0000254,0.99236807,0.0000,06/09.3339/2007,2000,g  3.5,4.0
# From MPC 82314
P/2007 K2 (Gibbs),e,7.6228,188.5802,347.2926,7.296224,0.0500100,0.68426301,306.0176,01/13.0/2024,2000,g 14.0,4.0
# From MPC 60925
P/2007 Q2 (Gilmore),e,10.2000,172.1955,162.8724,5.660575,0.0731835,0.66949963,83.6123,01/13.0/2024,2000,g 16.0,4.0
# From MPC 73462
P/2007 S1 (Zhao),e,5.9648,141.3321,245.2110,3.817070,0.1321627,0.33845203,61.2290,01/13.0/2024,2000,g 13.0,4.0
# From MPC 61994
P/2007 T2 (Kowalski),e,9.7507,3.3873,359.6732,3.044402,0.1855457,0.78566898,10.4616,01/13.0/2024,2000,g 18.5,4.0
# From MPC 64114
P/2008 O3 (Boattini),e,32.3293,47.6082,341.1758,8.210822,0.0418913,0.69661370,238.5576,01/13.0/2024,2000,g 13.0,4.0
# From MPC 75710
P/2008 Y3 (McNaught),e,38.7784,262.8337,238.0517,8.044342,0.0431985,0.44692732,237.9034,01/13.0/2024,2000,g  8.5,4.0
# From MPC 75710
P/2009 B1 (Boattini),e,22.2519,297.1046,128.9331,6.733290,0.0564109,0.63603104,309.2693,01/13.0/2024,2000,g 13.0,4.0
# From MPC 66466
C/2009 G1 (STEREO),e,108.3232,120.7293,175.5451,469.6364,0.0000968,0.99756588,0.0000,04/18.0422/2009,2000,g  9.0,4.0
# From MPC 75710
P/2009 O3 (Hill),e,16.2749,183.7109,154.4769,7.767661,0.0455270,0.68709965,243.0994,01/13.0/2024,2000,g 12.5,4.0
# From MPC 68902
P/2009 Q5 (McNaught),e,40.9799,160.2734,209.1553,7.426279,0.0487020,0.60979780,254.5659,01/13.0/2024,2000,g 10.0,4.0
# From MPC112389
P/2009 T2 (La Sagra),e,27.6157,216.3581,215.9134,7.713464,0.0460076,0.76721257,235.5312,01/13.0/2024,2000,g 14.0,4.0
# From MPC105235
P/2009 WX51 (Catalina),e,9.5931,31.5500,118.2592,3.082653,0.1821030,0.73936910,210.0709,01/13.0/2024,2000,g 19.0,2.0
# From MPC 74247
P/2009 Y2 (Kowalski),e,29.9710,262.0813,172.1588,6.545646,0.0588539,0.63732837,297.9865,01/13.0/2024,2000,g 13.0,4.0
# From MPC 75711
P/2010 A3 (Hill),e,14.8187,63.6470,42.2383,6.093703,0.0655212,0.73406490,332.2509,01/13.0/2024,2000,g 14.0,4.0
# From MPC 75008
P/2010 C1 (Scotti),e,9.1182,141.6468,3.1660,7.115972,0.0519222,0.26226716,270.7134,01/13.0/2024,2000,g  9.5,4.0
# From MPC 75008
P/2010 D2 (WISE),e,57.1171,319.8729,119.9375,6.721642,0.0565576,0.45172570,287.9945,01/13.0/2024,2000,g 16.0,4.0
# From MPC 75009
P/2010 E2 (Jarnac),e,15.3966,177.7977,8.2643,8.639048,0.0388155,0.71980169,195.9754,01/13.0/2024,2000,g 14.0,4.0
# From MPC 72851
P/2010 H2 (Vales),e,14.2796,64.1876,128.0469,3.831838,0.1313994,0.19719443,304.5905,01/13.0/2024,2000,g  6.0,4.0
# From MPC 70361
P/2010 H3 (SOHO),e,23.1403,77.1729,26.0698,3.035995,0.1863170,0.98549530,0.0000,05/25.1314/2026,2000,g 20.0,2.0
# From MPC 73463
P/2010 H4 (Scotti),e,2.3180,44.6184,179.1551,6.608746,0.0580130,0.26609533,289.0807,01/13.0/2024,2000,g 10.5,4.0
# From MPC 74637
P/2010 H5 (Scotti),e,14.0575,24.5911,174.5870,7.175492,0.0512775,0.15311588,259.6443,01/13.0/2024,2000,g 13.0,2.0
# From MPC 98558
P/2010 J3 (McMillan),e,13.2418,106.5139,157.5067,8.985144,0.0365946,0.72455302,179.1802,01/13.0/2024,2000,g 11.0,4.0
# From MPC 84315
P/2010 JC81 (WISE),e,38.8178,30.8781,12.4546,8.103483,0.0427264,0.77829511,198.2517,01/13.0/2024,2000,g  9.0,4.0
# From MPC 74248
P/2010 T2 (PANSTARRS),e,7.8927,57.9566,351.8529,5.640894,0.0735669,0.33004417,356.0679,01/13.0/2024,2000,g 11.5,4.0
# From MPEC 2023-O88
P/2010 TO20 (LINEAR-Grauer),e,2.4788,43.2712,267.8311,5.831466,0.0699902,0.05538307,28.5158,01/13.0/2024,2000,g  9.0,4.0
# From MPC 82316
P/2010 U1 (Boattini),e,8.2253,280.8045,86.3859,6.493920,0.0595585,0.24904408,302.2756,01/13.0/2024,2000,g  9.5,4.0
# From MPEC 2023-J95
C/2010 U3 (Boattini),e,55.5666,42.9874,88.0429,4313,0.0000035,0.99804344,0.0000,02/26.1645/2019,2000,g  1.0,4.0
# From MPC 79021
P/2010 UH55 (Spacewatch),e,8.0371,232.8930,225.1757,6.652828,0.0574374,0.56437257,267.9569,01/13.0/2024,2000,g 11.0,4.0
# From MPC 75009
P/2010 WK (LINEAR),e,11.4024,11.3434,40.9991,5.762514,0.0712502,0.69072422,346.4402,01/13.0/2024,2000,g 14.5,2.0
# From MPC 84021
P/2011 C2 (Gibbs),e,10.8885,11.9535,160.3647,7.412642,0.0488365,0.26981479,215.8902,01/13.0/2024,2000,g  9.0,4.0
# From MPC 79866
P/2011 FR143 (Lemmon),e,15.9722,190.8724,349.8248,6.870223,0.0547328,0.45155141,258.7366,01/13.0/2024,2000,g 14.0,2.0
# From MPC 82317
P/2011 JB15 (Spacewatch-Boattini),e,19.1334,153.5637,110.9403,7.373964,0.0492212,0.31486481,216.0624,01/13.0/2024,2000,g  9.0,4.0
# From MPC 87913
P/2011 N1 (ASH),e,35.7808,77.6276,330.4146,6.239623,0.0632363,0.54553527,268.4713,01/13.0/2024,2000,g 11.5,4.0
# From MPC 75714
P/2011 NO1 (Elenin),e,15.2452,295.8143,263.7180,5.537552,0.0756358,0.77489451,359.7767,01/13.0/2024,2000,g 15.0,4.0
# From MPEC 2022-ED3
P/2011 P1 (McNaught),e,5.6570,4.2886,349.1800,7.458350,0.0483883,0.32726785,237.4731,01/13.0/2024,2000,g  9.0,4.0
# From MPEC 2022-HC2
P/2011 S1 (Gibbs),e,2.6889,218.8970,192.6550,8.587230,0.0391674,0.20172510,134.4268,01/13.0/2024,2000,g  8.0,4.0
# From MPC 79022
